JY1SAT (JO-97)          
1 43803U 18099AX  26068.68634132  .00017774  00000+0  60804-3 0  9996
2 43803  97.4249 131.3625 0004723 256.6795 103.3919 15.30302628398390
STARLINK-32237          
1 60443U 24144U   26068.62841727  .00001518  00000+0  63376-4 0  9994
2 60443  53.1588 217.1357 0000868  58.8234 301.2851 15.30189107 89302
